[{"OBJECT_NAME":"STARLINK-2673","OBJECT_ID":"2021-044M","EPOCH":"2026-03-09T12:06:57.695616","MEAN_MOTION":15.30166289,"ECCENTRICITY":0.00012955,"INCLINATION":53.1601,"RA_OF_ASC_NODE":114.7025,"ARG_OF_PERICENTER":87.225,"MEAN_ANOMALY":272.8899,"EPHEMERIS_TYPE":0,"CLASSIFICATION_TYPE":"U","NORAD_CAT_ID":48649,"ELEMENT_SET_NO":999,"REV_AT_EPOCH":26379,"BSTAR":0.00033198626,"MEAN_MOTION_DOT":9.476e-5,"MEAN_MOTION_DDOT":0},{"OBJECT_NAME":"SL-3 R\/B","OBJECT_ID":"1982-027B","EPOCH":"2026-03-09T22:44:40.208640","MEAN_MOTION":15.28335844,"ECCENTRICITY":0.00065199,"INCLINATION":81.188,"RA_OF_ASC_NODE":37.4466,"ARG_OF_PERICENTER":276.581,"MEAN_ANOMALY":83.4683,"EPHEMERIS_TYPE":0,"CLASSIFICATION_TYPE":"U","NORAD_CAT_ID":13121,"ELEMENT_SET_NO":999,"REV_AT_EPOCH":39859,"BSTAR":0.00030526741,"MEAN_MOTION_DOT":8.453e-5,"MEAN_MOTION_DDOT":0}]
